ONEWEB-0389             
1 50469U 21132A   26177.08325050 -.00000010  00000+0 -58636-4 0  9993
2 50469  87.9130   4.0980 0002051  80.4190 279.7173 13.17649213219257
ONEWEB-0390             
1 50470U 21132B   26177.00900203 -.00000024  00000+0 -94687-4 0  9997
2 50470  87.9133   4.1138 0002083  93.3928 266.7442 13.17649376219249
ONEWEB-0391             
1 50471U 21132C   26177.08662610  .00000025  00000+0  30968-4 0  9994
2 50471  87.9133   4.1081 0002585  78.6765 281.4657 13.17649247219259
ONEWEB-0392             
1 50472U 21132D   26176.96513404  .00000053  00000+0  10406-3 0  9992
2 50472  87.9142   4.1011 0002121  80.7384 279.3987 13.17649514219271
ONEWEB-0393             
1 50473U 21132E   26176.94065058  .00000092  00000+0  20493-3 0  9998
2 50473  87.9132   4.1226 0001959  84.8784 275.2571 13.17650438219266
ONEWEB-0394             
1 50474U 21132F   26176.97565896  .00000026  00000+0  33574-4 0  9999
2 50474  87.9174 333.6933 0001757  90.2853 269.8480 13.18688991222754
ONEWEB-0395             
1 50475U 21132G   26177.09377250  .00000584  00000+0  16107-2 0  9999
2 50475  87.8879  19.2936 0002074  87.7755 272.3610 13.11416251216883
ONEWEB-0396             
1 50476U 21132H   26176.96892000 -.00000045  00000+0 -14683-3 0  9992
2 50476  87.9178 333.7076 0001840  88.7200 271.4143 13.18684994222798
ONEWEB-0397             
1 50477U 21132J   26176.98409506  .00000044  00000+0  79535-4 0  9995
2 50477  87.9176 333.7045 0001722  87.1970 272.9359 13.18686079222778
ONEWEB-0398             
1 50478U 21132K   26176.98524839 -.00000268  00000+0 -79264-3 0  9991
2 50478  87.8890  19.3068 0002061  93.0905 267.0458 13.11418386216768
ONEWEB-0399             
1 50479U 21132L   26176.97168550 -.00000453  00000+0 -13132-2 0  9992
2 50479  87.8890  19.3206 0001993  73.4084 286.7263 13.11416554216752
ONEWEB-0400             
1 50480U 21132M   26177.18980628  .00000080  00000+0  17069-3 0  9994
2 50480  87.9177 333.6536 0001997  97.9754 262.1605 13.18685769222792
ONEWEB-0401             
1 50481U 21132N   26177.15945602  .00000036  00000+0  58885-4 0  9998
2 50481  87.9177 333.6570 0001604  94.3252 265.8063 13.18685212222791
ONEWEB-0402             
1 50482U 21132P   26176.97060932 -.00000014  00000+0 -66989-4 0  9994
2 50482  87.9175 333.6836 0001381  89.3786 270.7504 13.18686825222799
ONEWEB-0403             
1 50483U 21132Q   26177.14765238  .00000051  00000+0  96462-4 0  9994
2 50483  87.9176 333.6724 0001931  90.5161 269.6192 13.18686102222775
ONEWEB-0404             
1 50484U 21132R   26177.10562925  .00000242  00000+0  64633-3 0  9995
2 50484  87.8883  19.2915 0002069  80.9904 279.1459 13.11416438216861
ONEWEB-0405             
1 50485U 21132S   26177.16110448  .00003373  00000+0  85247-2 0  9992
2 50485  87.9177 333.6550 0002576  96.1510 263.9916 13.18652203223172
ONEWEB-0406             
1 50486U 21132T   26177.15271001  .00000042  00000+0  74726-4 0  9997
2 50486  87.9173 333.6724 0002194  82.4677 277.6705 13.18686012222802
ONEWEB-0407             
1 50487U 21132U   26177.14597240  .00000106  00000+0  23523-3 0  9992
2 50487  87.9177 333.6660 0001728 100.3956 259.7370 13.18687350222746
ONEWEB-0409             
1 50488U 21132V   26177.10393606  .00000287  00000+0  77507-3 0  9990
2 50488  87.8887  19.2803 0002094  84.4362 275.7004 13.11414818216756
ONEWEB-0412             
1 50489U 21132W   26176.98240741 -.00000004  00000+0 -42218-4 0  9998
2 50489  87.9174 333.7067 0001542  91.5133 268.6176 13.18685999222817
ONEWEB-0413             
1 50490U 21132X   26177.13923094  .00000024  00000+0  27719-4 0  9996
2 50490  87.9166 333.6736 0001558  97.7211 262.4098 13.18686973222777
ONEWEB-0414             
1 50491U 21132Y   26176.97229404 -.00000024  00000+0 -92472-4 0  9992
2 50491  87.9177 333.6895 0001723  89.9467 270.1863 13.18685890222780
ONEWEB-0417             
1 50492U 21132Z   26176.98072287 -.00000030  00000+0 -10992-3 0  9992
2 50492  87.9169 333.7067 0002031  90.1492 269.9873 13.18686205222765
ONEWEB-0418             
1 50493U 21132AA  26176.99069322 -.00000050  00000+0 -16065-3 0  9999
2 50493  87.9174 333.7051 0002074  89.5325 270.6045 13.18685196222824
ONEWEB-0419             
1 50494U 21132AB  26177.16118735  .00000032  00000+0  49043-4 0  9994
2 50494  87.9176 333.6710 0002160  95.5659 264.5719 13.18666094222760
ONEWEB-0420             
1 50495U 21132AC  26176.97396894 -.00001404  00000+0 -35938-2 0  9999
2 50495  87.9167 333.7101 0001420 105.4000 254.7289 13.18694617222737
ONEWEB-0421             
1 50496U 21132AD  26177.19486620  .00000068  00000+0  14054-3 0  9992
2 50496  87.9170 333.6643 0001577  84.3698 275.7614 13.18684583222807
ONEWEB-0424             
1 50497U 21132AE  26177.15608503  .00000051  00000+0  97800-4 0  9998
2 50497  87.9175 333.6705 0002195  98.5566 261.5815 13.18685558222821
ONEWEB-0426             
1 50498U 21132AF  26177.19064258 -.00000023  00000+0 -91239-4 0  9997
2 50498  87.9176 333.6545 0001945  73.6587 286.4759 13.18684267222777
ONEWEB-0427             
1 50499U 21132AG  26177.15439990  .00000005  00000+0 -19626-4 0  9992
2 50499  87.9178 333.6508 0001987  89.4094 270.7266 13.18685388222799
ONEWEB-0429             
1 50500U 21132AH  26177.14090372  .00000081  00000+0  17394-3 0  9993
2 50500  87.9169 333.6770 0001760  97.7147 262.4185 13.18687579222762
ONEWEB-0430             
1 50501U 21132AJ  26176.97735707 -.00001155  00000+0 -29623-2 0  9994
2 50501  87.9175 333.7082 0001972 101.8321 258.3033 13.18675954222785
ONEWEB-0432             
1 50502U 21132AK  26177.18283125  .00000087  00000+0  19115-3 0  9998
2 50502  87.9175 333.6504 0002358 104.5510 255.5882 13.17154951222760
ONEWEB-0440             
1 50503U 21132AL  26177.14933580  .00000044  00000+0  78670-4 0  9997
2 50503  87.9177 333.6705 0001502  93.2660 266.8644 13.18686061222759
ONEWEB-0450             
1 50504U 21132AM  26177.14272904 -.00001723  00000+0 -44027-2 0  9998
2 50504  87.9164 333.6760 0001327 104.7194 255.4086 13.18695646222788
ONEWEB-0410             
1 51622U 22012A   26176.94994132  .00000036  00000+0  60685-4 0  9993
2 51622  87.9143   4.1143 0002779  64.8921 295.2498 13.17649101214850
ONEWEB-0411             
1 51623U 22012B   26177.09988444  .00002370  00000+0  67528-2 0  9994
2 51623  87.8836  34.4916 0001762 103.8944 256.2380 13.10359894210452
ONEWEB-0415             
1 51624U 22012C   26177.09649046  .00002689  00000+0  76677-2 0  9995
2 51624  87.8829  34.4914 0001979  91.9096 268.2258 13.10357654210457
ONEWEB-0416             
1 51625U 22012D   26177.10837778  .00002872  00000+0  81899-2 0  9995
2 51625  87.8836  34.5064 0002365  89.9000 270.2399 13.10358721210494
ONEWEB-0422             
1 51626U 22012E   26176.58038654  .00000072  00000+0  15214-3 0  9992
2 51626  87.9141   4.1889 0001294 101.0701 259.0576 13.17649693214918
ONEWEB-0423             
1 51627U 22012F   26176.87737242 -.00000040  00000+0 -13619-3 0  9998
2 51627  87.9135   4.1349 0001849  85.9696 274.1647 13.17650177214840
ONEWEB-0425             
1 51628U 22012G   26177.11855343  .00003870  00000+0  11047-1 0  9993
2 51628  87.8827  34.4880 0001952  75.5372 284.5972 13.10354628210493
ONEWEB-0428             
1 51629U 22012H   26177.09819073  .00002915  00000+0  83140-2 0  9994
2 51629  87.8823  34.4991 0001740  84.5241 275.6085 13.10357046210452
ONEWEB-0431             
1 51630U 22012J   26177.14384735 -.00003860  00000+0 -11096-1 0  9996
2 51630  87.8822  34.4816 0001823 106.5969 253.5359 13.10394606210512
ONEWEB-0434             
1 51631U 22012K   26176.96935169  .00003631  00000+0  10364-1 0  9990
2 51631  87.8832  34.5431 0002048  65.8569 294.2772 13.10351387210476
ONEWEB-0435             
1 51632U 22012L   26177.12870986 -.00005537  00000+0 -15899-1 0  9992
2 51632  87.8823  34.4959 0001052 100.2755 259.8491 13.10407444210488
ONEWEB-0436             
1 51633U 22012M   26176.56519278 -.00000026  00000+0 -99406-4 0  9991
2 51633  87.9139   4.1792 0001693  94.3818 265.7507 13.17648914214780
ONEWEB-0438             
1 51634U 22012N   26177.11346689  .00003316  00000+0  94622-2 0  9994
2 51634  87.8829  34.5030 0001902  80.4018 279.7324 13.10360889210513
ONEWEB-0439             
1 51635U 22012P   26177.11686213  .00004170  00000+0  11908-1 0  9999
2 51635  87.8827  34.4902 0001746  81.7045 278.4280 13.10356469210492
ONEWEB-0442             
1 51636U 22012Q   26177.01323595 -.00000738  00000+0 -19350-2 0  9998
2 51636  87.9129   4.1223 0002175  77.7756 282.3619 13.17642220214832
ONEWEB-0443             
1 51637U 22012R   26176.95667764  .00000089  00000+0  19693-3 0  9998
2 51637  87.9129   4.1345 0001644  80.3401 279.7917 13.17650758214875
ONEWEB-0444             
1 51638U 22012S   26177.10667463  .00002907  00000+0  82905-2 0  9999
2 51638  87.8824  34.4899 0001564  78.6940 281.4363 13.10359962210503
ONEWEB-0445             
1 51639U 22012T   26176.97430001 -.00003395  00000+0 -97620-2 0  9994
2 51639  87.8839  34.5049 0002090  88.6801 271.4565 13.10393819210490
ONEWEB-0446             
1 51640U 22012U   26177.10497884  .00004280  00000+0  12222-1 0  9990
2 51640  87.8827  34.5079 0002053  86.8695 273.2667 13.10359012210492
ONEWEB-0448             
1 51641U 22012V   26177.11005610 -.00000082  00000+0 -27020-3 0  9996
2 51641  87.8824  34.5029 0001735  82.4167 277.7158 13.10362579210460
ONEWEB-0449             
1 51642U 22012W   26177.11517014  .00003627  00000+0  10352-1 0  9997
2 51642  87.8833  34.4880 0002268  73.2967 286.8409 13.10351127210471
ONEWEB-0451             
1 51643U 22012X   26176.94150851  .00000063  00000+0  12949-3 0  9997
2 51643  87.9143   4.1021 0001919  82.7692 277.3658 13.17649869214813
ONEWEB-0452             
1 51644U 22012Y   26176.93980897  .00000114  00000+0  25991-3 0  9996
2 51644  87.9131   4.1384 0001741  79.9596 280.1731 13.17649680214823
